NORAD_CAT_ID,OBJECT_NAME,OBJECT_TYPE,EPOCH,MEAN_MOTION,ECCENTRICITY,INCLINATION,RA_OF_ASC_NODE,ARG_OF_PERICENTER,MEAN_ANOMALY,BSTAR,MEAN_MOTION_DOT,MEAN_MOTION_DDOT,TLE_LINE0,TLE_LINE1,TLE_LINE2,SEMIMAJOR_AXIS,PERIOD,APOGEE,PERIGEE,DECAYED
50200.0,STARLINK-3235,PAYLOAD,2023-11-07 04:23:20,15.08841558,0.0001418,53.2141,110.674,64.1971,295.9167,3.2776e-05,2.34e-06,0.0,0 STARLINK-3235,1 50200U 21125AW  23311.18287350  .00000234  00000-0  32776-4 0  9990,2 50200  53.2141 110.6740 0001418  64.1971 295.9167 15.08841558107402,6917.876,95.437,540.722,538.76,0.0
50200.0,STARLINK-3235,PAYLOAD,2023-11-07 13:55:39,15.0883258,0.000179,53.2164,108.8875,88.7595,271.3603,-0.00013891,-2.498e-05,0.0,0 STARLINK-3235,1 50200U 21125AW  23311.58031961 -.00002498  00000-0 -13891-3 0  9991,2 50200  53.2164 108.8875 0001790  88.7595 271.3603 15.08832580107950,6917.903,95.438,541.006,538.53,0.0
50200.0,STARLINK-3235,PAYLOAD,2023-11-07 17:06:26,15.08829538,0.0001407,53.2151,108.2929,88.5835,271.5318,-0.00014428,-2.583e-05,0.0,0 STARLINK-3235,1 50200U 21125AW  23311.71280285 -.00002583  00000-0 -14428-3 0  9993,2 50200  53.2151 108.2929 0001407  88.5835 271.5318 15.08829538107482,6917.912,95.438,540.751,538.804,0.0
50200.0,STARLINK-3235,PAYLOAD,2023-11-08 13:46:26,15.08839818,0.0001518,53.2159,104.4271,84.6705,275.4461,0.00012213,1.656e-05,0.0,0 STARLINK-3235,1 50200U 21125AW  23312.57392224  .00001656  00000-0  12213-3 0  9993,2 50200  53.2159 104.4271 0001518  84.6705 275.4461 15.08839818108108,6917.881,95.438,540.796,538.696,0.0
50200.0,STARLINK-3235,PAYLOAD,2023-11-08 16:57:13,15.08842941,0.0001371,53.2166,103.8324,84.6548,275.46,0.00032806,4.937e-05,0.0,0 STARLINK-3235,1 50200U 21125AW  23312.70640272  .00004937  00000-0  32806-3 0  9992,2 50200  53.2166 103.8324 0001371  84.6548 275.4600 15.08842941107633,6917.871,95.437,540.685,538.788,0.0
50200.0,STARLINK-3235,PAYLOAD,2023-11-09 10:26:28,15.08839941,0.0001391,53.2162,100.5625,81.1557,278.9593,0.0003103,4.654e-05,0.0,0 STARLINK-3235,1 50200U 21125AW  23313.43504753  .00004654  00000-0  31030-3 0  9990,2 50200  53.2162 100.5625 0001391  81.1557 278.9593 15.08839941107748,6917.881,95.438,540.708,538.783,0.0
50200.0,STARLINK-3235,PAYLOAD,2023-11-09 13:37:14,15.08840354,0.0001375,53.2169,99.9674,93.3951,266.7198,0.00028929,4.319e-05,0.0,0 STARLINK-3235,1 50200U 21125AW  23313.56752736  .00004319  00000-0  28929-3 0  9991,2 50200  53.2169  99.9674 0001375  93.3951 266.7198 15.08840354108258,6917.879,95.438,540.696,538.793,0.0
50200.0,STARLINK-3235,PAYLOAD,2023-11-09 16:48:00,15.08843267,0.0001311,53.2164,99.3723,86.5607,273.5536,0.00028301,4.219e-05,0.0,0 STARLINK-3235,1 50200U 21125AW  23313.70000666  .00004219  00000-0  28301-3 0  9998,2 50200  53.2164  99.3723 0001311  86.5607 273.5536 15.08843267108274,6917.87,95.437,540.642,538.828,0.0
50200.0,STARLINK-3235,PAYLOAD,2023-11-10 13:28:01,15.08841412,0.0001448,53.218,95.5095,94.4842,265.6316,0.00010507,1.385e-05,0.0,0 STARLINK-3235,1 50200U 21125AW  23314.56112710  .00001385  00000-0  10507-3 0  9997,2 50200  53.2180  95.5095 0001448  94.4842 265.6316 15.08841412108405,6917.876,95.437,540.743,538.739,0.0
50200.0,STARLINK-3235,PAYLOAD,2023-11-10 16:38:47,15.088426,0.0001418,53.2176,94.9145,95.7115,264.4039,9.1565e-05,1.17e-05,0.0,0 STARLINK-3235,1 50200U 21125AW  23314.69360630  .00001170  00000-0  91565-4 0  9993,2 50200  53.2176  94.9145 0001418  95.7115 264.4039 15.08842600107939,6917.872,95.437,540.718,538.756,0.0
50200.0,STARLINK-3235,PAYLOAD,2023-11-11 13:18:48,15.08841863,0.0001294,53.216,91.0464,89.6376,270.4765,0.00012912,1.768e-05,0.0,0 STARLINK-3235,1 50200U 21125AW  23315.55472731  .00001768  00000-0  12912-3 0  9996,2 50200  53.2160  91.0464 0001294  89.6376 270.4765 15.08841863108559,6917.875,95.437,540.635,538.845,0.0
50200.0,STARLINK-3235,PAYLOAD,2023-11-11 16:29:34,15.0884463,0.0001285,53.2159,90.4517,89.2205,270.8934,0.00017223,2.455e-05,0.0,0 STARLINK-3235,1 50200U 21125AW  23315.68720563  .00002455  00000-0  17223-3 0  9993,2 50200  53.2159  90.4517 0001285  89.2205 270.8934 15.08844630108575,6917.866,95.437,540.62,538.842,0.0
50200.0,STARLINK-3235,PAYLOAD,2023-11-12 08:23:26,15.08839023,0.0001272,53.2157,87.478,92.4304,267.6833,0.00013885,1.923e-05,0.0,0 STARLINK-3235,1 50200U 21125AW  23316.34960782  .00001923  00000-0  13885-3 0  9995,2 50200  53.2157  87.4780 0001272  92.4304 267.6833 15.08839023108182,6917.883,95.438,540.628,538.868,0.0
50200.0,STARLINK-3235,PAYLOAD,2023-11-12 13:09:35,15.08834422,0.0001194,53.216,86.5862,91.1262,268.9867,0.00039578,6.016e-05,0.0,0 STARLINK-3235,1 50200U 21125AW  23316.54833257  .00006016  00000-0  39578-3 0  9998,2 50200  53.2160  86.5862 0001194  91.1262 268.9867 15.08834422108706,6917.897,95.438,540.588,538.936,0.0
50200.0,STARLINK-3235,PAYLOAD,2023-11-12 16:20:21,15.08846537,0.0001258,53.2161,85.9914,91.5565,268.5572,0.00015094,2.116e-05,0.0,0 STARLINK-3235,1 50200U 21125AW  23316.68080460  .00002116  00000-0  15094-3 0  9997,2 50200  53.2161  85.9914 0001258  91.5565 268.5572 15.08846537108720,6917.86,95.437,540.596,538.855,0.0
50200.0,STARLINK-3235,PAYLOAD,2023-11-13 14:35:45,15.08848844,0.0001274,53.2165,81.8286,84.3732,275.7406,0.00015024,2.105e-05,0.0,0 STARLINK-3235,1 50200U 21125AW  23317.60816175  .00002105  00000-0  15024-3 0  9991,2 50200  53.2165  81.8286 0001274  84.3732 275.7406 15.08848844108869,6917.853,95.437,540.6,538.837,0.0
50200.0,STARLINK-3235,PAYLOAD,2023-11-13 17:46:31,15.08855611,0.0001368,53.2165,81.2339,78.3228,281.7918,0.00023778,3.5e-05,0.0,0 STARLINK-3235,1 50200U 21125AW  23317.74063810  .00003500  00000-0  23778-3 0  9991,2 50200  53.2165  81.2339 0001368  78.3228 281.7918 15.08855611108392,6917.833,95.437,540.644,538.751,0.0
50200.0,STARLINK-3235,PAYLOAD,2023-11-14 01:43:27,15.08841104,0.000131,53.2169,79.7471,89.1901,270.9241,5.6123e-05,6.05e-06,0.0,0 STARLINK-3235,1 50200U 21125AW  23318.07184452  .00000605  00000-0  56123-4 0  9998,2 50200  53.2169  79.7471 0001310  89.1901 270.9241 15.08841104108447,6917.877,95.437,540.648,538.836,0.0
50200.0,STARLINK-3235,PAYLOAD,2023-11-14 14:26:32,15.08837988,0.0001489,53.2176,77.367,93.6191,266.4972,-3.3819e-05,-8.26e-06,0.0,0 STARLINK-3235,1 50200U 21125AW  23318.60176762 -.00000826  00000-0 -33819-4 0  9996,2 50200  53.2176  77.3670 0001489  93.6191 266.4972 15.08837988109018,6917.887,95.438,540.782,538.721,0.0
50200.0,STARLINK-3235,PAYLOAD,2023-11-15 12:41:56,15.08841861,0.0001442,53.2163,73.2036,96.0838,264.0319,5.5688e-05,5.98e-06,0.0,0 STARLINK-3235,1 50200U 21125AW  23319.52912812  .00000598  00000-0  55688-4 0  9994,2 50200  53.2163  73.2036 0001442  96.0838 264.0319 15.08841861109158,6917.875,95.437,540.737,538.742,0.0
50200.0,STARLINK-3235,PAYLOAD,2023-11-15 17:28:05,15.08847871,0.0001408,53.2162,72.3107,97.0495,263.0657,0.00012891,1.765e-05,0.0,0 STARLINK-3235,1 50200U 21125AW  23319.72784507  .00001765  00000-0  12891-3 0  9999,2 50200  53.2162  72.3107 0001408  97.0495 263.0657 15.08847871108697,6917.856,95.437,540.695,538.747,0.0
50200.0,STARLINK-3235,PAYLOAD,2023-11-17 12:23:31,15.08839867,0.0001367,53.2183,64.2795,98.6952,261.4195,4.6707e-05,4.56e-06,0.0,0 STARLINK-3235,1 50200U 21125AW  23321.51633269  .00000456  00000-0  46707-4 0  9997,2 50200  53.2183  64.2795 0001367  98.6952 261.4195 15.08839867108967,6917.881,95.438,540.691,538.8,0.0
50200.0,STARLINK-3235,PAYLOAD,2023-11-17 13:58:54,15.08841844,0.00013,53.2178,63.9848,85.695,274.4191,3.6481e-05,2.93e-06,0.0,0 STARLINK-3235,1 50200U 21125AW  23321.58257163  .00000293  00000-0  36481-4 0  9996,2 50200  53.2178  63.9848 0001300  85.6950 274.4191 15.08841844109461,6917.875,95.437,540.639,538.84,0.0
50200.0,STARLINK-3235,PAYLOAD,2023-11-18 13:49:41,15.08835405,0.0001317,53.2183,59.5283,98.5194,261.5948,9.4381e-05,1.214e-05,0.0,0 STARLINK-3235,1 50200U 21125AW  23322.57617601  .00001214  00000-0  94381-4 0  9990,2 50200  53.2183  59.5283 0001317  98.5194 261.5948 15.08835405109612,6917.894,95.438,540.671,538.848,0.0
50200.0,STARLINK-3235,PAYLOAD,2023-11-19 13:40:28,15.08842696,0.0001316,53.2185,55.0681,96.4171,263.6971,0.00012961,1.776e-05,0.0,0 STARLINK-3235,1 50200U 21125AW  23323.56977299  .00001776  00000-0  12961-3 0  9998,2 50200  53.2185  55.0681 0001316  96.4171 263.6971 15.08842696109763,6917.872,95.437,540.648,538.827,0.0
50200.0,STARLINK-3235,PAYLOAD,2023-11-19 15:15:51,15.08844138,0.0001361,53.2187,54.7712,98.3634,261.7512,0.00014273,1.985e-05,0.0,0 STARLINK-3235,1 50200U 21125AW  23323.63601191  .00001985  00000-0  14273-3 0  9991,2 50200  53.2187  54.7712 0001361  98.3634 261.7512 15.08844138109281,6917.868,95.437,540.674,538.791,0.0
50200.0,STARLINK-3235,PAYLOAD,2023-11-19 23:12:47,15.08837648,0.0001375,53.2186,53.2842,96.2483,263.8666,7.9472e-05,9.77e-06,0.0,0 STARLINK-3235,1 50200U 21125AW  23323.96721716  .00000977  00000-0  79472-4 0  9996,2 50200  53.2186  53.2842 0001375  96.2483 263.8666 15.08837648109339,6917.888,95.438,540.704,538.801,0.0
50200.0,STARLINK-3235,PAYLOAD,2023-11-20 13:31:15,15.08843173,0.0001408,53.2183,50.6076,93.5611,266.5542,0.00010936,1.453e-05,0.0,0 STARLINK-3235,1 50200U 21125AW  23324.56337423  .00001453  00000-0  10936-3 0  9990,2 50200  53.2183  50.6076 0001408  93.5611 266.5542 15.08843173109913,6917.871,95.437,540.71,538.762,0.0
50200.0,STARLINK-3235,PAYLOAD,2023-11-21 11:46:40,15.08834401,0.0001602,53.219,46.4438,91.1367,268.9809,0.00010126,1.324e-05,0.0,0 STARLINK-3235,1 50200U 21125AW  23325.49074197  .00001324  00000-0  10126-3 0  9997,2 50200  53.2190  46.4438 0001602  91.1367 268.9809 15.08834401109561,6917.898,95.438,540.871,538.654,0.0
50200.0,STARLINK-3235,PAYLOAD,2023-11-21 13:22:02,15.0884337,0.000138,53.2188,46.1458,88.3832,271.7318,1.1115e-05,-1.11e-06,0.0,0 STARLINK-3235,1 50200U 21125AW  23325.55697771 -.00000111  00000-0  11115-4 0  9997,2 50200  53.2188  46.1458 0001380  88.3832 271.7318 15.08843370110064,6917.87,95.437,540.69,538.78,0.0
